start=new Date('2023-06-29T00:00:00.000Z').valueOf();
sats=[{"CLASSIFICATION_TYPE":"U","PERIOD":"95.592","SEMIMAJOR_AXIS":"6925.365","OBJECT_TYPE":"PAYLOAD","COUNTRY_CODE":"US","EPOCH":"2023-06-28T05:00:34.430976","MEAN_MOTION_DOT":"0.00002891","INCLINATION":"53.0531","OBJECT_NAME":"STARLINK-1960","DECAY_DATE":null,"RA_OF_ASC_NODE":"125.6152","MEAN_ELEMENT_THEORY":"SGP4","REF_FRAME":"TEME","SITE":"AFETR","GP_ID":"234598496","MEAN_ANOMALY":"264.9554","OBJECT_ID":"2021-009P","MEAN_MOTION_DDOT":"0.0000000000000","LAUNCH_DATE":"2021-02-04","ELEMENT_SET_NO":"999","REV_AT_EPOCH":"13287","TLE_LINE2":"2 47561  53.0531 125.6152 0000979  95.1547 264.9554 15.06394580132877","ECCENTRICITY":"0.00009790","CENTER_NAME":"EARTH","ARG_OF_PERICENTER":"95.1547","TLE_LINE1":"1 47561U 21009P   23179.20873184  .00002891  00000-0  21291-3 0  9998","APOAPSIS":"547.908","PERIAPSIS":"546.552","RCS_SIZE":"LARGE","FILE":"3944651","NORAD_CAT_ID":"47561","EPHEMERIS_TYPE":"0","TIME_SYSTEM":"UTC","MEAN_MOTION":"15.06394580","BSTAR":"0.00021291000000"},{"PERIAPSIS":"546.269","RCS_SIZE":"LARGE","FILE":"3944651","EPHEMERIS_TYPE":"0","TIME_SYSTEM":"UTC","NORAD_CAT_ID":"47562","BSTAR":"-0.00014743000000","MEAN_MOTION":"15.06386632","REV_AT_EPOCH":"13285","LAUNCH_DATE":"2021-02-04","ELEMENT_SET_NO":"999","TLE_LINE2":"2 47562  53.0551 125.8469 0001423  99.7592 260.3558 15.06386632132859","ECCENTRICITY":"0.00014230","TLE_LINE1":"1 47562U 21009Q   23179.15712692 -.00002476  00000-0 -14743-3 0  9994","ARG_OF_PERICENTER":"99.7592","APOAPSIS":"548.240","CENTER_NAME":"EARTH","DECAY_DATE":null,"REF_FRAME":"TEME","RA_OF_ASC_NODE":"125.8469","MEAN_ELEMENT_THEORY":"SGP4","MEAN_ANOMALY":"260.3558","MEAN_MOTION_DDOT":"0.0000000000000","OBJECT_ID":"2021-009Q","SITE":"AFETR","GP_ID":"234598003","CLASSIFICATION_TYPE":"U","SEMIMAJOR_AXIS":"6925.390","PERIOD":"95.593","OBJECT_TYPE":"PAYLOAD","EPOCH":"2023-06-28T03:46:15.765888","COUNTRY_CODE":"US","INCLINATION":"53.0551","MEAN_MOTION_DOT":"-0.00002476","OBJECT_NAME":"STARLINK-1961"},{"ELEMENT_SET_NO":"999","LAUNCH_DATE":"2021-02-04","REV_AT_EPOCH":"13284","TLE_LINE2":"2 47563  53.0525 126.0431 0000880  94.8241 265.2848 15.06392871132843","ECCENTRICITY":"0.00008800","CENTER_NAME":"EARTH","ARG_OF_PERICENTER":"94.8241","TLE_LINE1":"1 47563U 21009R   23179.11289306  .00003653  00000-0  26406-3 0  9997","APOAPSIS":"547.845","PERIAPSIS":"546.626","RCS_SIZE":"LARGE","FILE":"3944727","NORAD_CAT_ID":"47563","TIME_SYSTEM":"UTC","EPHEMERIS_TYPE":"0","MEAN_MOTION":"15.06392871","BSTAR":"0.00026406000000","CLASSIFICATION_TYPE":"U","SEMIMAJOR_AXIS":"6925.370","PERIOD":"95.593","OBJECT_TYPE":"PAYLOAD","COUNTRY_CODE":"US","EPOCH":"2023-06-28T02:42:33.960384","INCLINATION":"53.0525","MEAN_MOTION_DOT":"0.00003653","OBJECT_NAME":"STARLINK-1962","DECAY_DATE":null,"RA_OF_ASC_NODE":"126.0431","MEAN_ELEMENT_THEORY":"SGP4","REF_FRAME":"TEME","SITE":"AFETR","GP_ID":"234600258","MEAN_ANOMALY":"265.2848","OBJECT_ID":"2021-009R","MEAN_MOTION_DDOT":"0.0000000000000"},{"CENTER_NAME":"EARTH","APOAPSIS":"548.034","ARG_OF_PERICENTER":"98.5805","TLE_LINE1":"1 47564U 21009S   23179.11381756  .00004747  00000-0  33739-3 0  9992","LAUNCH_DATE":"2021-02-04","ELEMENT_SET_NO":"999","REV_AT_EPOCH":"13298","TLE_LINE2":"2 47564  53.0535 116.0399 0001179  98.5805 261.5318 15.06398762132987","ECCENTRICITY":"0.00011790","NORAD_CAT_ID":"47564","EPHEMERIS_TYPE":"0","TIME_SYSTEM":"UTC","MEAN_MOTION":"15.06398762","BSTAR":"0.00033739000000","PERIAPSIS":"546.401","FILE":"3944727","RCS_SIZE":"LARGE","COUNTRY_CODE":"US","EPOCH":"2023-06-28T02:43:53.837184","OBJECT_NAME":"STARLINK-1963","MEAN_MOTION_DOT":"0.00004747","INCLINATION":"53.0535","CLASSIFICATION_TYPE":"U","OBJECT_TYPE":"PAYLOAD","SEMIMAJOR_AXIS":"6925.352","PERIOD":"95.592","GP_ID":"234600257","SITE":"AFETR","OBJECT_ID":"2021-009S","MEAN_MOTION_DDOT":"0.0000000000000","MEAN_ANOMALY":"261.5318","DECAY_DATE":null,"MEAN_ELEMENT_THEORY":"SGP4","RA_OF_ASC_NODE":"116.0399","REF_FRAME":"TEME"},{"SEMIMAJOR_AXIS":"6925.363","PERIOD":"95.592","OBJECT_TYPE":"PAYLOAD","CLASSIFICATION_TYPE":"U","OBJECT_NAME":"STARLINK-1964","MEAN_MOTION_DOT":"0.00003150","INCLINATION":"53.0531","EPOCH":"2023-06-28T02:38:35.455776","COUNTRY_CODE":"US","REF_FRAME":"TEME","RA_OF_ASC_NODE":"116.0569","MEAN_ELEMENT_THEORY":"SGP4","DECAY_DATE":null,"MEAN_ANOMALY":"270.7884","MEAN_MOTION_DDOT":"0.0000000000000","OBJECT_ID":"2021-009T","SITE":"AFETR","GP_ID":"234606038","TLE_LINE2":"2 47565  53.0531 116.0569 0001015  89.3222 270.7884 15.06395438132980","ECCENTRICITY":"0.00010150","REV_AT_EPOCH":"13298","LAUNCH_DATE":"2021-02-04","ELEMENT_SET_NO":"999","ARG_OF_PERICENTER":"89.3222","TLE_LINE1":"1 47565U 21009T   23179.11013259  .00003150  00000-0  23030-3 0  9993","APOAPSIS":"547.930","CENTER_NAME":"EARTH","FILE":"3944977","RCS_SIZE":"LARGE","PERIAPSIS":"546.525","BSTAR":"0.00023030000000","MEAN_MOTION":"15.06395438","EPHEMERIS_TYPE":"0","TIME_SYSTEM":"UTC","NORAD_CAT_ID":"47565"},{"OBJECT_TYPE":"PAYLOAD","SEMIMAJOR_AXIS":"6925.360","PERIOD":"95.592","CLASSIFICATION_TYPE":"U","INCLINATION":"53.0536","MEAN_MOTION_DOT":"0.00008082","OBJECT_NAME":"STARLINK-1965","COUNTRY_CODE":"US","EPOCH":"2023-06-28T04:04:51.984768","MEAN_ELEMENT_THEORY":"SGP4","RA_OF_ASC_NODE":"105.7844","REF_FRAME":"TEME","DECAY_DATE":null,"GP_ID":"234599747","SITE":"AFETR","MEAN_MOTION_DDOT":"0.0000000000000","OBJECT_ID":"2021-009U","MEAN_ANOMALY":"260.9428","TLE_LINE2":"2 47566  53.0536 105.7844 0001411  99.1721 260.9428 15.06396200133142","ECCENTRICITY":"0.00014110","LAUNCH_DATE":"2021-02-04","ELEMENT_SET_NO":"999","REV_AT_EPOCH":"13314","CENTER_NAME":"EARTH","APOAPSIS":"548.202","TLE_LINE1":"1 47566U 21009U   23179.17004612  .00008082  00000-0  56091-3 0  9995","ARG_OF_PERICENTER":"99.1721","FILE":"3944727","RCS_SIZE":"LARGE","PERIAPSIS":"546.248","MEAN_MOTION":"15.06396200","BSTAR":"0.00056091000000","NORAD_CAT_ID":"47566","TIME_SYSTEM":"UTC","EPHEMERIS_TYPE":"0"},{"OBJECT_TYPE":"PAYLOAD","SEMIMAJOR_AXIS":"6925.373","PERIOD":"95.593","CLASSIFICATION_TYPE":"U","MEAN_MOTION_DOT":"0.00000210","INCLINATION":"53.0526","OBJECT_NAME":"STARLINK-1966","COUNTRY_CODE":"US","EPOCH":"2023-06-28T06:33:26.942400","MEAN_ELEMENT_THEORY":"SGP4","RA_OF_ASC_NODE":"145.3217","REF_FRAME":"TEME","DECAY_DATE":null,"GP_ID":"234605738","SITE":"AFETR","OBJECT_ID":"2021-009V","MEAN_MOTION_DDOT":"0.0000000000000","MEAN_ANOMALY":"251.7566","ECCENTRICITY":"0.00011060","TLE_LINE2":"2 47567  53.0526 145.3217 0001106 108.3543 251.7566 15.06391921132585","LAUNCH_DATE":"2021-02-04","ELEMENT_SET_NO":"999","REV_AT_EPOCH":"13258","CENTER_NAME":"EARTH","APOAPSIS":"548.004","ARG_OF_PERICENTER":"108.3543","TLE_LINE1":"1 47567U 21009V   23179.27322850  .00000210  00000-0  33000-4 0  9995","RCS_SIZE":"LARGE","FILE":"3944959","PERIAPSIS":"546.472","MEAN_MOTION":"15.06391921","BSTAR":"0.00003300000000","NORAD_CAT_ID":"47567","TIME_SYSTEM":"UTC","EPHEMERIS_TYPE":"0"},{"REV_AT_EPOCH":"13259","LAUNCH_DATE":"2021-02-04","ELEMENT_SET_NO":"999","TLE_LINE2":"2 47568  53.0524 145.2065 0001325  95.0189 265.0951 15.06388698132599","ECCENTRICITY":"0.00013250","APOAPSIS":"548.166","TLE_LINE1":"1 47568U 21009W   23179.29903522 -.00000347  00000-0 -43855-5 0  9992","ARG_OF_PERICENTER":"95.0189","CENTER_NAME":"EARTH","PERIAPSIS":"546.331","RCS_SIZE":"LARGE","FILE":"3944959","TIME_SYSTEM":"UTC","EPHEMERIS_TYPE":"0","NORAD_CAT_ID":"47568","BSTAR":"-0.00000438550000","MEAN_MOTION":"15.06388698","CLASSIFICATION_TYPE":"U","OBJECT_TYPE":"PAYLOAD","PERIOD":"95.593","SEMIMAJOR_AXIS":"6925.383","EPOCH":"2023-06-28T07:10:36.643008","COUNTRY_CODE":"US","MEAN_MOTION_DOT":"-0.00000347","OBJECT_NAME":"STARLINK-1967","INCLINATION":"53.0524","DECAY_DATE":null,"REF_FRAME":"TEME","MEAN_ELEMENT_THEORY":"SGP4","RA_OF_ASC_NODE":"145.2065","MEAN_MOTION_DDOT":"0.0000000000000","OBJECT_ID":"2021-009W","MEAN_ANOMALY":"265.0951","GP_ID":"234605741","SITE":"AFETR"},{"EPOCH":"2023-06-28T02:13:22.963296","COUNTRY_CODE":"US","INCLINATION":"53.0535","MEAN_MOTION_DOT":"0.00017319","OBJECT_NAME":"STARLINK-1969","CLASSIFICATION_TYPE":"U","SEMIMAJOR_AXIS":"6925.376","PERIOD":"95.593","OBJECT_TYPE":"PAYLOAD","MEAN_ANOMALY":"259.5289","OBJECT_ID":"2021-009Y","MEAN_MOTION_DDOT":"0.0000000000000","SITE":"AFETR","GP_ID":"234599749","DECAY_DATE":null,"REF_FRAME":"TEME","RA_OF_ASC_NODE":"106.1352","MEAN_ELEMENT_THEORY":"SGP4","TLE_LINE1":"1 47570U 21009Y   23179.09262689  .00017319  00000-0  11790-2 0  9990","ARG_OF_PERICENTER":"100.5855","APOAPSIS":"548.196","CENTER_NAME":"EARTH","REV_AT_EPOCH":"13313","LAUNCH_DATE":"2021-02-04","ELEMENT_SET_NO":"999","TLE_LINE2":"2 47570  53.0535 106.1352 0001379 100.5855 259.5289 15.06391049133137","ECCENTRICITY":"0.00013790","EPHEMERIS_TYPE":"0","TIME_SYSTEM":"UTC","NORAD_CAT_ID":"47570","BSTAR":"0.00117900000000","MEAN_MOTION":"15.06391049","PERIAPSIS":"546.286","FILE":"3944727","RCS_SIZE":"LARGE"},{"CLASSIFICATION_TYPE":"U","PERIOD":"95.593","SEMIMAJOR_AXIS":"6925.372","OBJECT_TYPE":"PAYLOAD","EPOCH":"2023-06-28T02:27:59.785920","COUNTRY_CODE":"US","MEAN_MOTION_DOT":"0.00005213","OBJECT_NAME":"STARLINK-1970","INCLINATION":"53.0539","DECAY_DATE":null,"REF_FRAME":"TEME","RA_OF_ASC_NODE":"116.0900","MEAN_ELEMENT_THEORY":"SGP4","MEAN_ANOMALY":"282.1538","MEAN_MOTION_DDOT":"0.0000000000000","OBJECT_ID":"2021-009Z","SITE":"AFETR","GP_ID":"234599751","REV_AT_EPOCH":"13298","LAUNCH_DATE":"2021-02-04","ELEMENT_SET_NO":"999","TLE_LINE2":"2 47571  53.0539 116.0900 0001539  77.9624 282.1538 15.06392481132982","ECCENTRICITY":"0.00015390","ARG_OF_PERICENTER":"77.9624","TLE_LINE1":"1 47571U 21009Z   23179.10277530  .00005213  00000-0  36868-3 0  9998","APOAPSIS":"548.302","CENTER_NAME":"EARTH","PERIAPSIS":"546.171","RCS_SIZE":"LARGE","FILE":"3944727","EPHEMERIS_TYPE":"0","TIME_SYSTEM":"UTC","NORAD_CAT_ID":"47571","BSTAR":"0.00036868000000","MEAN_MOTION":"15.06392481"}];
